[{"OBJECT_NAME":"STARLINK-3861","OBJECT_ID":"2022-049BE","EPOCH":"2026-03-09T07:26:12.999552","MEAN_MOTION":15.08837336,"ECCENTRICITY":0.00013843,"INCLINATION":53.2187,"RA_OF_ASC_NODE":40.711,"ARG_OF_PERICENTER":89.9727,"MEAN_ANOMALY":270.1424,"EPHEMERIS_TYPE":0,"CLASSIFICATION_TYPE":"U","NORAD_CAT_ID":52503,"ELEMENT_SET_NO":999,"REV_AT_EPOCH":21247,"BSTAR":-2.850001e-5,"MEAN_MOTION_DOT":-7.41e-6,"MEAN_MOTION_DDOT":0},{"OBJECT_NAME":"BREEZE-M DEB","OBJECT_ID":"2008-011X","EPOCH":"2026-03-09T08:40:54.056928","MEAN_MOTION":3.45878003,"ECCENTRICITY":0.63353106,"INCLINATION":49.1354,"RA_OF_ASC_NODE":123.3549,"ARG_OF_PERICENTER":65.3522,"MEAN_ANOMALY":346.467,"EPHEMERIS_TYPE":0,"CLASSIFICATION_TYPE":"U","NORAD_CAT_ID":38576,"ELEMENT_SET_NO":999,"REV_AT_EPOCH":14783,"BSTAR":0.0052690943,"MEAN_MOTION_DOT":4.545e-5,"MEAN_MOTION_DDOT":0}]
